1 58418C 23180S   26178.23034722  .00156420  00000+0  56592-2 0  1782
2 58418  43.0019 153.8530 0001290 266.3980 311.9146 15.27537004    16
STARLINK-30917          
1 58419C 23180T   26178.20326389 -.00026879  00000+0 -97305-3 0  1787
2 58419  43.0010  45.2850 0001402 268.6033 155.9405 15.27608486    13
STARLINK-30899          
1 58420C 23180U   26178.19909722 -.00003666  00000+0 -13277-3 0  1780
2 58420  43.0011 153.7893 0001309 266.6953 238.5971 15.27577682    12
STARLINK-30902          
1 58421C 23180V   26178.20881944 -.00005299  00000+0 -19208-3 0  1782
2 58421  43.0024 154.0019 0001161 275.8922 169.8033 15.27553294    13
STARLINK-30912          
1 58422C 23180W   26178.18729167 -.00080439  00000+0 -29133-2 0  1784
2 58422  43.0037  11.9144 0001570 266.2755 105.0315 15.27620957    16
STARLINK-30900          
1 58423C 23180X   26178.19979167 -.00008448  00000+0 -30600-3 0  1785
2 58423  43.0015 153.9208 0001462 266.5256 164.8025 15.27581247    19
STARLINK-30908          
1 58424C 23180Y   26178.22618056  .00006608  00000+0  23944-3 0  1784
2 58424  43.0020 153.7639 0001440 274.6816 287.8429 15.27562308    11
STARLINK-30869          
1 58437C 23183A   26178.14979167 -.00009576  00000+0 -34667-3 0  1788
2 58437  43.0000 143.5345 0001309 260.0235 107.1670 15.27600325    16
STARLINK-30969          
1 58438C 23183B   26178.24076389  .00005243  00000+0  18996-3 0  1786
2 58438  42.9998 142.9717 0001051 274.8429 254.4239 15.27565255    18
STARLINK-30951          
1 58439C 23183C   26178.16368056 -.00054574  00000+0 -19770-2 0  1786
2 58439  43.0013 143.5105 0001209 269.4756 152.9555 15.27599877    15
STARLINK-30950          
1 58440C 23183D   26178.16090278  .00021642  00000+0  78371-3 0  1787
2 58440  43.0035 306.8930 0001736 277.4956 143.3018 15.27573649    14
STARLINK-30942          
1 58441C 23183E   26178.16784722 -.00032652  00000+0 -11832-2 0  1785
2 58441  43.0000 142.9295 0001316 271.4233  47.3960 15.27580441    13
STARLINK-30959          
1 58442C 23183F   26178.23243056 -.00008931  00000+0 -32362-3 0  1789
2 58442  42.9995 142.6985 0001312 272.5236 345.2881 15.27567408    19
STARLINK-30971          
1 58443C 23183G   26178.18034722 -.00032090  00000+0 -11628-2 0  1786
2 58443  43.0008 143.6417 0001737 270.6208 144.5208 15.27578590    14
STARLINK-30963          
1 58444C 23183H   26178.21645833 -.00043535  00000+0 -15772-2 0  1782
2 58444  42.9990 142.8317 0001253 276.2539 232.3845 15.27592078    15
STARLINK-30961          
1 58445C 23183J   26178.24770833  .00020001  00000+0  72459-3 0  1782
2 58445  42.9994 142.7052 0001213 276.8502  22.6207 15.27561191    11
STARLINK-30975          
1 58446C 23183K   26178.21784722 -.00003416  00000+0 -12381-3 0  1783
2 58446  42.9991 142.8499 0001285 274.9407 227.2625 15.27558757    18
STARLINK-30976          
1 58447C 23183L   26178.15465278 -.00010449  00000+0 -37854-3 0  1785
2 58447  42.9992 143.4159 0001279 264.0708 179.3590 15.27578552    10
STARLINK-30926          
1 58448C 23183M   26178.21298611 -.00003504  00000+0 -12697-3 0  1780
2 58448  42.9997 142.6637 0001474 273.3133 279.9136 15.27567651    11
STARLINK-30943          
1 58449C 23183N   26178.19909722  .00046947  00000+0  16999-2 0  1784
2 58449  43.0028 117.3065 0000764 252.6226 347.7196 15.27565404    11
STARLINK-30946          
1 58450C 23183P   26178.24354167  .00024944  00000+0  90356-3 0  1782
2 58450  43.0003 142.9018 0001270 268.1153 297.6613 15.27562831    10
STARLINK-30944          
1 58451C 23183Q   26178.17687500  .00002469  00000+0  89463-4 0  1781
2 58451  42.9986 143.1597 0001210 270.9329 337.3147 15.27567711    10
STARLINK-30928          
1 58452C 23183R   26178.20673611 -.00002809  00000+0 -10185-3 0  1788
2 58452  42.9987 143.0404 0001317 270.5533 120.9770 15.27543372    14
STARLINK-30957          
1 58453C 23183S   26178.21229167 -.00141100  00000+0 -51129-2 0  1783
2 58453  42.9993 142.9438 0001118 274.0052 176.4055 15.27634221    17
STARLINK-30966          
1 58454C 23183T   26178.21993056 -.00024352  00000+0 -88236-3 0  1788
2 58454  42.9988 142.9479 0000984 275.7354 195.4404 15.27578248    15
STARLINK-30935          
1 58455C 23183U   26178.19909722  .00006667  00000+0  24151-3 0  1786
2 58455  43.0023 143.4372 0001803 283.9019 276.9130 15.27570112    19
STARLINK-30958          
1 58457C 23183W   26178.19215278 -.00000035  00000+0 -12847-5 0  1780
2 58457  42.9990 142.8718 0001367 267.3505 149.8851 15.27560928    12
STARLINK-30962          
1 58458C 23183X   26178.21854167  .00016122  00000+0  58398-3 0  1781
2 58458  43.0001 142.6237 0001559 269.0532 335.9355 15.27568130    14
STARLINK-30977          
1 58459C 23183Y   26178.23590278  .00016763  00000+0  60761-3 0  1782
2 58459  43.0019 143.2762 0001585 271.3457 110.8500 15.27546004    13
STARLINK-30947          
1 58473C 23186A   26178.14145833 -.00022933  00000+0 -83071-3 0  1781
2 58473  42.9988 169.0732 0001400 264.3209 102.6208 15.27586453    14
STARLINK-30941          
1 58475C 23186C   26178.16298611 -.00020788  00000+0 -75306-3 0  1786
2 58475  42.9982 168.9844 0001347 263.8860 207.4344 15.27584401    15
STARLINK-30980          
1 58476C 23186D   26178.23729167 -.00005719  00000+0 -20718-3 0  1784
2 58476  43.0002 168.6128 0001206 268.8707 230.3403 15.27576266    13
STARLINK-30965          
1 58477C 23186E   26178.17895833 -.00010458  00000+0 -37878-3 0  1783
2 58477  43.0014 153.8609 0001375 268.0426  69.9378 15.27583586    14
STARLINK-30990          
1 58478C 23186F   26178.20534722 -.00014901  00000+0 -53969-3 0  1781
2 58478  42.9987 168.6588 0001201 268.5751 111.3500 15.27587678    11
STARLINK-30984          
1 58480C 23186H   26178.22756944 -.00032038  00000+0 -11609-2 0  1783
2 58480  42.9996 164.6716 0001526 269.6822  60.9172 15.27580454    13
STARLINK-30956          
1 58481C 23186J   26178.18034722 -.00018445  00000+0 -66837-3 0  1782
2 58481  43.0020 142.9365 0001335 270.3495 223.1034 15.27572847    13
STARLINK-30997          
1 58482C 23186K   26178.16159722 -.00033108  00000+0 -12002-2 0  1786
2 58482  42.9997 165.4553 0001280 274.7318 228.8208 15.27566054    13
STARLINK-30994          
1 58483C 23186L   26178.14423611  .00039248  00000+0  11682-2 0  1788
2 58483  42.9995   0.3704 0008894 279.0184  51.5054 15.33826400    15
STARLINK-30991          
1 58484C 23186M   26178.19562500 -.00012510  00000+0 -45316-3 0  1782
2 58484  42.9998 164.8337 0001455 267.4652 254.3027 15.27579836    18
STARLINK-30979          
1 58485C 23186N   26178.23243056 -.00012175  00000+0 -44117-3 0  1785
2 58485  43.0010 165.2075 0001265 270.2806 213.6184 15.27571980    16
STARLINK-31005          
1 58486C 23186P   26178.20881944 -.00013623  00000+0 -49349-3 0  1788
2 58486  43.0001 165.2553 0001365 265.3467 123.9082 15.27581602    19
STARLINK-30987          
1 58487C 23186Q   26178.15604167 -.00022397  00000+0 -81145-3 0  1781
2 58487  43.0009 165.6021 0001318 268.4534 169.0111 15.27580473    18
STARLINK-31000          
1 58488C 23186R   26178.15743056 -.00116380  00000+0 -42124-2 0  1782
2 58488  42.9982 165.4405 0000966 268.6164 240.2082 15.27659044    10
STARLINK-30993          
1 58489C 23186S   26178.21715278 -.00010358  00000+0 -37549-3 0  1789
2 58489  42.9984 165.1553 0001386 271.7960 184.5336 15.27555097    15
STARLINK-30978          
1 58490C 23186T   26178.19979167 -.00015872  00000+0 -57499-3 0  1789
2 58490  42.9986 165.1176 0001359 268.0426 149.3279 15.27580764    10
STARLINK-30953          
1 58491C 23186U   26178.24423611 -.00012971  00000+0 -46970-3 0  1783
2 58491  43.0030   8.7946 0001809 267.7334 145.5431 15.27592988    13
STARLINK-30986          
1 58492C 23186V   26178.24840278 -.00019479  00000+0 -70584-3 0  1784
2 58492  42.9987 164.7914 0001302 273.5321  72.7240 15.27573949    15
STARLINK-30985          
1 58493C 23186W   26178.23243056 -.00004454  00000+0 -16136-3 0  1785
2 58493  42.9986 164.7806 0001407 273.7146  27.0329 15.27576061    17
STARLINK-30981          
1 58494C 23186X   26178.18173611 -.00048268  00000+0 -17488-2 0  1780
2 58494  42.9989 165.0146 0001434 268.0158 134.8694 15.27591815    18
STARLINK-31002          
1 58495C 23186Y   26178.22826389 -.00104880  00000+0 -38033-2 0  1785
2 58495  43.0014 165.2767 0001114 266.5288 173.1790 15.27589842    13
STARLINK-31026          
1 58508C 23191A   26178.15465278 -.00002298  00000+0 -83253-4 0  1780
2 58508  42.9989 212.2336 0001386 265.3769 338.6709 15.27577565    11
STARLINK-31020          
1 58509C 23191B   26178.17270833 -.00010125  00000+0 -36673-3 0  1785
2 58509  43.0018 211.9845 0001959 269.5656 137.5473 15.27581840    10
STARLINK-30989          
1 58510C 23191C   26178.19145833 -.00022179  00000+0 -80363-3 0  1787
2 58510  42.9995 205.2967 0001300 265.0457 147.9048 15.27577256    14
STARLINK-30968          
1 58511C 23191D   26178.17062500 -.00013068  00000+0 -47350-3 0  1781
2 58511  43.0001 205.4636 0001319 265.1324  11.9086 15.27572185    12
STARLINK-30982          
1 58512C 23191E   26178.15256944 -.00010725  00000+0 -38852-3 0  1781
2 58512  43.0017 205.6143 0001310 263.7395 252.6636 15.27578253    15
STARLINK-30998          
1 58513C 23191F   26178.15395833 -.00010538  00000+0 -38176-3 0  1784
2 58513  43.0012 205.6447 0001350 267.1612 242.7312 15.27577162    11
STARLINK-30983          
1 58514C 23191G   26178.21923611 -.00022010  00000+0 -79739-3 0  1781
2 58514  42.9986 204.8997 0001287 272.1858  32.7502 15.27582220    17
STARLINK-31017          
1 58515C 23191H   26178.22201389  .00011682  00000+0  42313-3 0  1783
2 58515  43.0008 332.5820 0001550 263.9369 347.8993 15.27571342    14
STARLINK-31028          
1 58516C 23191J   26178.21229167 -.00001903  00000+0 -69002-4 0  1789
2 58516  43.0025 204.5698 0001852 276.2595 146.0183 15.27540063    14
STARLINK-31011          
1 58517C 23191K   26178.20673611 -.00031504  00000+0 -11411-2 0  1785
